[{"OBJECT_NAME":"STARLINK-31862","OBJECT_ID":"2024-093E","EPOCH":"2026-03-09T10:57:28.356480","MEAN_MOTION":15.27569338,"ECCENTRICITY":0.00017431,"INCLINATION":43.0057,"RA_OF_ASC_NODE":209.8847,"ARG_OF_PERICENTER":271.3935,"MEAN_ANOMALY":88.6717,"EPHEMERIS_TYPE":0,"CLASSIFICATION_TYPE":"U","NORAD_CAT_ID":59786,"ELEMENT_SET_NO":999,"REV_AT_EPOCH":10266,"BSTAR":-3.1586818e-5,"MEAN_MOTION_DOT":-1.131e-5,"MEAN_MOTION_DDOT":0},{"OBJECT_NAME":"HAWK-11A","OBJECT_ID":"2024-247F","EPOCH":"2026-03-09T12:17:43.893312","MEAN_MOTION":15.28849427,"ECCENTRICITY":0.00054663,"INCLINATION":44.9941,"RA_OF_ASC_NODE":114.3328,"ARG_OF_PERICENTER":327.3713,"MEAN_ANOMALY":32.6832,"EPHEMERIS_TYPE":0,"CLASSIFICATION_TYPE":"U","NORAD_CAT_ID":62382,"ELEMENT_SET_NO":999,"REV_AT_EPOCH":6774,"BSTAR":0.00034106017,"MEAN_MOTION_DOT":9.457e-5,"MEAN_MOTION_DDOT":0}]
