STARLINK-31862          
1 59786U 24093E   26068.45657820 -.00001131  00000+0 -31587-4 0  9997
2 59786  43.0057 209.8847 0001743 271.3935  88.6717 15.27569338102660
HAWK-11A                
1 62382U 24247F   26068.51231358  .00009457  00000+0  34106-3 0  9991
2 62382  44.9941 114.3328 0005466 327.3713  32.6832 15.28849427 67741
